KUIPER-00035            
1 63748U 25088AA  25351.72614704 -.00001095  00000+0 -11445-3 0  9992
2 63748  51.9012 116.5553 0007108 156.2012 203.9280 14.79910779 35373
KUIPER-00037            
1 63749U 25088AB  25351.66023610  .00094389  00000+0  12906-1 0  9993
2 63749  51.8995 115.7947 0004935 107.6972 252.4529 14.77676997 36163
KUIPER-00038            
1 63750U 25088AC  25351.60876920  .00001989  00000+0  28990-3 0  9995
2 63750  51.9027 101.0389 0007515 157.3893 202.7402 14.79934096 35369
KUIPER-00039            
1 64500U 25134A   25351.71661655  .00017883  00000+0  23687-2 0  9997
2 64500  51.8970 235.5728 0012228  20.2003 339.9441 14.79885656 27934
KUIPER-00040            
1 64501U 25134B   25351.90631255 -.00005150  00000+0 -64395-3 0  9990
2 64501  51.8992 245.8792 0017470 357.8886   2.2000 14.79976957 27808
KUIPER-00041            
1 64502U 25134C   25351.90528940 -.00051930  00000+0 -68906-2 0  9995
2 64502  51.8988 247.2384 0013495 359.3521   0.7422 14.79522644 27781
KUIPER-00042            
1 64503U 25134D   25351.09895690 -.00007625  00000+0 -97164-3 0  9996
2 64503  51.9000 246.8105 0012403   8.4436 351.6733 14.79890109 27720
KUIPER-00043            
1 64504U 25134E   25351.71483441  .00003145  00000+0  44121-3 0  9999
2 64504  51.9015 236.5349 0003821  27.0104 333.1057 14.79949172 27927
