<?xml version="1.0" encoding="UTF-8"?>
<ndm xmlns:xsi="http://www.w3.org/2001/XMLSchema-instance" xsi:noNamespaceSchemaLocation="https://sanaregistry.org/r/ndmxml_unqualified/ndmxml-2.0.0-master-2.0.xsd">
<omm id="CCSDS_OMM_VERS" version="2.0">
<header><CREATION_DATE/><ORIGINATOR/></header><body><segment><metadata><OBJECT_NAME>KUIPER-00035</OBJECT_NAME><OBJECT_ID>2025-088AA</OBJECT_ID><CENTER_NAME>EARTH</CENTER_NAME><REF_FRAME>TEME</REF_FRAME><TIME_SYSTEM>UTC</TIME_SYSTEM><MEAN_ELEMENT_THEORY>SGP4</MEAN_ELEMENT_THEORY></metadata><data><meanElements><EPOCH>2025-12-17T17:25:39.104256</EPOCH><MEAN_MOTION>14.79910779</MEAN_MOTION><ECCENTRICITY>.00071081</ECCENTRICITY><INCLINATION>51.9012</INCLINATION><RA_OF_ASC_NODE>116.5553</RA_OF_ASC_NODE><ARG_OF_PERICENTER>156.2012</ARG_OF_PERICENTER><MEAN_ANOMALY>203.9280</MEAN_ANOMALY></meanElements><tleParameters><EPHEMERIS_TYPE>0</EPHEMERIS_TYPE><CLASSIFICATION_TYPE>U</CLASSIFICATION_TYPE><NORAD_CAT_ID>63748</NORAD_CAT_ID><ELEMENT_SET_NO>999</ELEMENT_SET_NO><REV_AT_EPOCH>3537</REV_AT_EPOCH><BSTAR>-.11444703E-3</BSTAR><MEAN_MOTION_DOT>-.1095E-4</MEAN_MOTION_DOT><MEAN_MOTION_DDOT>0</MEAN_MOTION_DDOT></tleParameters></data></segment></body></omm>
<omm id="CCSDS_OMM_VERS" version="2.0">
<header><CREATION_DATE/><ORIGINATOR/></header><body><segment><metadata><OBJECT_NAME>KUIPER-00037</OBJECT_NAME><OBJECT_ID>2025-088AB</OBJECT_ID><CENTER_NAME>EARTH</CENTER_NAME><REF_FRAME>TEME</REF_FRAME><TIME_SYSTEM>UTC</TIME_SYSTEM><MEAN_ELEMENT_THEORY>SGP4</MEAN_ELEMENT_THEORY></metadata><data><meanElements><EPOCH>2025-12-17T15:50:44.399040</EPOCH><MEAN_MOTION>14.77676997</MEAN_MOTION><ECCENTRICITY>.00049351</ECCENTRICITY><INCLINATION>51.8995</INCLINATION><RA_OF_ASC_NODE>115.7947</RA_OF_ASC_NODE><ARG_OF_PERICENTER>107.6972</ARG_OF_PERICENTER><MEAN_ANOMALY>252.4529</MEAN_ANOMALY></meanElements><tleParameters><EPHEMERIS_TYPE>0</EPHEMERIS_TYPE><CLASSIFICATION_TYPE>U</CLASSIFICATION_TYPE><NORAD_CAT_ID>63749</NORAD_CAT_ID><ELEMENT_SET_NO>999</ELEMENT_SET_NO><REV_AT_EPOCH>3616</REV_AT_EPOCH><BSTAR>.12906137E-1</BSTAR><MEAN_MOTION_DOT>.94389E-3</MEAN_MOTION_DOT><MEAN_MOTION_DDOT>0</MEAN_MOTION_DDOT></tleParameters></data></segment></body></omm>
<omm id="CCSDS_OMM_VERS" version="2.0">
<header><CREATION_DATE/><ORIGINATOR/></header><body><segment><metadata><OBJECT_NAME>KUIPER-00038</OBJECT_NAME><OBJECT_ID>2025-088AC</OBJECT_ID><CENTER_NAME>EARTH</CENTER_NAME><REF_FRAME>TEME</REF_FRAME><TIME_SYSTEM>UTC</TIME_SYSTEM><MEAN_ELEMENT_THEORY>SGP4</MEAN_ELEMENT_THEORY></metadata><data><meanElements><EPOCH>2025-12-17T14:36:37.658880</EPOCH><MEAN_MOTION>14.79934096</MEAN_MOTION><ECCENTRICITY>.00075155</ECCENTRICITY><INCLINATION>51.9027</INCLINATION><RA_OF_ASC_NODE>101.0389</RA_OF_ASC_NODE><ARG_OF_PERICENTER>157.3893</ARG_OF_PERICENTER><MEAN_ANOMALY>202.7402</MEAN_ANOMALY></meanElements><tleParameters><EPHEMERIS_TYPE>0</EPHEMERIS_TYPE><CLASSIFICATION_TYPE>U</CLASSIFICATION_TYPE><NORAD_CAT_ID>63750</NORAD_CAT_ID><ELEMENT_SET_NO>999</ELEMENT_SET_NO><REV_AT_EPOCH>3536</REV_AT_EPOCH><BSTAR>.28989834E-3</BSTAR><MEAN_MOTION_DOT>.1989E-4</MEAN_MOTION_DOT><MEAN_MOTION_DDOT>0</MEAN_MOTION_DDOT></tleParameters></data></segment></body></omm>
<omm id="CCSDS_OMM_VERS" version="2.0">
<header><CREATION_DATE/><ORIGINATOR/></header><body><segment><metadata><OBJECT_NAME>KUIPER-00039</OBJECT_NAME><OBJECT_ID>2025-134A</OBJECT_ID><CENTER_NAME>EARTH</CENTER_NAME><REF_FRAME>TEME</REF_FRAME><TIME_SYSTEM>UTC</TIME_SYSTEM><MEAN_ELEMENT_THEORY>SGP4</MEAN_ELEMENT_THEORY></metadata><data><meanElements><EPOCH>2025-12-17T17:11:55.669920</EPOCH><MEAN_MOTION>14.79885656</MEAN_MOTION><ECCENTRICITY>.00122284</ECCENTRICITY><INCLINATION>51.8970</INCLINATION><RA_OF_ASC_NODE>235.5728</RA_OF_ASC_NODE><ARG_OF_PERICENTER>20.2003</ARG_OF_PERICENTER><MEAN_ANOMALY>339.9441</MEAN_ANOMALY></meanElements><tleParameters><EPHEMERIS_TYPE>0</EPHEMERIS_TYPE><CLASSIFICATION_TYPE>U</CLASSIFICATION_TYPE><NORAD_CAT_ID>64500</NORAD_CAT_ID><ELEMENT_SET_NO>999</ELEMENT_SET_NO><REV_AT_EPOCH>2793</REV_AT_EPOCH><BSTAR>.2368652E-2</BSTAR><MEAN_MOTION_DOT>.17883E-3</MEAN_MOTION_DOT><MEAN_MOTION_DDOT>0</MEAN_MOTION_DDOT></tleParameters></data></segment></body></omm>
<omm id="CCSDS_OMM_VERS" version="2.0">
<header><CREATION_DATE/><ORIGINATOR/></header><body><segment><metadata><OBJECT_NAME>KUIPER-00040</OBJECT_NAME><OBJECT_ID>2025-134B</OBJECT_ID><CENTER_NAME>EARTH</CENTER_NAME><REF_FRAME>TEME</REF_FRAME><TIME_SYSTEM>UTC</TIME_SYSTEM><MEAN_ELEMENT_THEORY>SGP4</MEAN_ELEMENT_THEORY></metadata><data><meanElements><EPOCH>2025-12-17T21:45:05.404320</EPOCH><MEAN_MOTION>14.79976957</MEAN_MOTION><ECCENTRICITY>.00174704</ECCENTRICITY><INCLINATION>51.8992</INCLINATION><RA_OF_ASC_NODE>245.8792</RA_OF_ASC_NODE><ARG_OF_PERICENTER>357.8886</ARG_OF_PERICENTER><MEAN_ANOMALY>2.2000</MEAN_ANOMALY></meanElements><tleParameters><EPHEMERIS_TYPE>0</EPHEMERIS_TYPE><CLASSIFICATION_TYPE>U</CLASSIFICATION_TYPE><NORAD_CAT_ID>64501</NORAD_CAT_ID><ELEMENT_SET_NO>999</ELEMENT_SET_NO><REV_AT_EPOCH>2780</REV_AT_EPOCH><BSTAR>-.64395081E-3</BSTAR><MEAN_MOTION_DOT>-.515E-4</MEAN_MOTION_DOT><MEAN_MOTION_DDOT>0</MEAN_MOTION_DDOT></tleParameters></data></segment></body></omm>
<omm id="CCSDS_OMM_VERS" version="2.0">
<header><CREATION_DATE/><ORIGINATOR/></header><body><segment><metadata><OBJECT_NAME>KUIPER-00041</OBJECT_NAME><OBJECT_ID>2025-134C</OBJECT_ID><CENTER_NAME>EARTH</CENTER_NAME><REF_FRAME>TEME</REF_FRAME><TIME_SYSTEM>UTC</TIME_SYSTEM><MEAN_ELEMENT_THEORY>SGP4</MEAN_ELEMENT_THEORY></metadata><data><meanElements><EPOCH>2025-12-17T21:43:37.004160</EPOCH><MEAN_MOTION>14.79522644</MEAN_MOTION><ECCENTRICITY>.00134954</ECCENTRICITY><INCLINATION>51.8988</INCLINATION><RA_OF_ASC_NODE>247.2384</RA_OF_ASC_NODE><ARG_OF_PERICENTER>359.3521</ARG_OF_PERICENTER><MEAN_ANOMALY>0.7422</MEAN_ANOMALY></meanElements><tleParameters><EPHEMERIS_TYPE>0</EPHEMERIS_TYPE><CLASSIFICATION_TYPE>U</CLASSIFICATION_TYPE><NORAD_CAT_ID>64502</NORAD_CAT_ID><ELEMENT_SET_NO>999</ELEMENT_SET_NO><REV_AT_EPOCH>2778</REV_AT_EPOCH><BSTAR>-.68905755E-2</BSTAR><MEAN_MOTION_DOT>-.5193E-3</MEAN_MOTION_DOT><MEAN_MOTION_DDOT>0</MEAN_MOTION_DDOT></tleParameters></data></segment></body></omm>
<omm id="CCSDS_OMM_VERS" version="2.0">
<header><CREATION_DATE/><ORIGINATOR/></header><body><segment><metadata><OBJECT_NAME>KUIPER-00042</OBJECT_NAME><OBJECT_ID>2025-134D</OBJECT_ID><CENTER_NAME>EARTH</CENTER_NAME><REF_FRAME>TEME</REF_FRAME><TIME_SYSTEM>UTC</TIME_SYSTEM><MEAN_ELEMENT_THEORY>SGP4</MEAN_ELEMENT_THEORY></metadata><data><meanElements><EPOCH>2025-12-17T02:22:29.876160</EPOCH><MEAN_MOTION>14.79890109</MEAN_MOTION><ECCENTRICITY>.00124032</ECCENTRICITY><INCLINATION>51.9000</INCLINATION><RA_OF_ASC_NODE>246.8105</RA_OF_ASC_NODE><ARG_OF_PERICENTER>8.4436</ARG_OF_PERICENTER><MEAN_ANOMALY>351.6733</MEAN_ANOMALY></meanElements><tleParameters><EPHEMERIS_TYPE>0</EPHEMERIS_TYPE><CLASSIFICATION_TYPE>U</CLASSIFICATION_TYPE><NORAD_CAT_ID>64503</NORAD_CAT_ID><ELEMENT_SET_NO>999</ELEMENT_SET_NO><REV_AT_EPOCH>2772</REV_AT_EPOCH><BSTAR>-.97163988E-3</BSTAR><MEAN_MOTION_DOT>-.7625E-4</MEAN_MOTION_DOT><MEAN_MOTION_DDOT>0</MEAN_MOTION_DDOT></tleParameters></data></segment></body></omm>
<omm id="CCSDS_OMM_VERS" version="2.0">
<header><CREATION_DATE/><ORIGINATOR/></header><body><segment><metadata><OBJECT_NAME>KUIPER-00043</OBJECT_NAME><OBJECT_ID>2025-134E</OBJECT_ID><CENTER_NAME>EARTH</CENTER_NAME><REF_FRAME>TEME</REF_FRAME><TIME_SYSTEM>UTC</TIME_SYSTEM><MEAN_ELEMENT_THEORY>SGP4</MEAN_ELEMENT_THEORY></metadata><data><meanElements><EPOCH>2025-12-17T17:09:21.693024</EPOCH><MEAN_MOTION>14.79949172</MEAN_MOTION><ECCENTRICITY>.00038215</ECCENTRICITY><INCLINATION>51.9015</INCLINATION><RA_OF_ASC_NODE>236.5349</RA_OF_ASC_NODE><ARG_OF_PERICENTER>27.0104</ARG_OF_PERICENTER><MEAN_ANOMALY>333.1057</MEAN_ANOMALY></meanElements><tleParameters><EPHEMERIS_TYPE>0</EPHEMERIS_TYPE><CLASSIFICATION_TYPE>U</CLASSIFICATION_TYPE><NORAD_CAT_ID>64504</NORAD_CAT_ID><ELEMENT_SET_NO>999</ELEMENT_SET_NO><REV_AT_EPOCH>2792</REV_AT_EPOCH><BSTAR>.44120749E-3</BSTAR><MEAN_MOTION_DOT>.3145E-4</MEAN_MOTION_DOT><MEAN_MOTION_DDOT>0</MEAN_MOTION_DDOT></tleParameters></data></segment></body></omm>

</ndm>
